{
  "norad_id": 53703,
  "name": "STARLINK-4731",
  "history": [
    {
      "epoch": "2026-03-28T14:37:11.853408",
      "apogee_km": 540.6664579060571,
      "perigee_km": 538.7405311123848,
      "latitude_deg": -32.25550364835993,
      "longitude_deg": -31.220162879908457,
      "semi_major_axis_km": 6917.840494509221,
      "eccentricity": 0.0001392,
      "inclination_deg": 53.2156,
      "raan_deg": 158.9308,
      "arg_perigee_deg": 97.4773,
      "mean_anomaly_deg": 262.6377,
      "mean_motion_rev_day": 15.08853052
    }
  ]
}