{"fetched_at":"2026-03-29T16:36:15Z","count":15609,"tles":[{"name":"STARLINK-4731","line1":"1 53703U 22107D   26087.60916497  .00002440  00000+0  17128-3 0  9996","line2":"2 53703  53.2156 158.9308 0001392  97.4773 262.6377 15.08853052197713","category":"Starlink"}]}